[{"OBJECT_NAME":"SES-14","OBJECT_ID":"2018-012B","EPOCH":"2026-03-12T08:21:45.444096","MEAN_MOTION":1.00272273,"ECCENTRICITY":9.0e-5,"INCLINATION":0.0142,"RA_OF_ASC_NODE":73.2078,"ARG_OF_PERICENTER":285.1964,"MEAN_ANOMALY":249.4941,"EPHEMERIS_TYPE":0,"CLASSIFICATION_TYPE":"U","NORAD_CAT_ID":43175,"ELEMENT_SET_NO":999,"REV_AT_EPOCH":605,"BSTAR":0,"MEAN_MOTION_DOT":-2.78e-6,"MEAN_MOTION_DDOT":0},{"OBJECT_NAME":"ARIANE 5 R/B","OBJECT_ID":"2018-012C","EPOCH":"2026-03-14T00:20:13.709184","MEAN_MOTION":2.04046415,"ECCENTRICITY":0.74681164,"INCLINATION":22.0404,"RA_OF_ASC_NODE":2.0363,"ARG_OF_PERICENTER":120.7057,"MEAN_ANOMALY":332.1696,"EPHEMERIS_TYPE":0,"CLASSIFICATION_TYPE":"U","NORAD_CAT_ID":43176,"ELEMENT_SET_NO":999,"REV_AT_EPOCH":5737,"BSTAR":0.0011184853,"MEAN_MOTION_DOT":2.318e-5,"MEAN_MOTION_DDOT":0},{"OBJECT_NAME":"GOES 17","OBJECT_ID":"2018-022A","EPOCH":"2026-03-14T13:13:07.568256","MEAN_MOTION":1.00272505,"ECCENTRICITY":0.00016255,"INCLINATION":0.6927,"RA_OF_ASC_NODE":87.32,"ARG_OF_PERICENTER":234.4927,"MEAN_ANOMALY":319.1205,"EPHEMERIS_TYPE":0,"CLASSIFICATION_TYPE":"U","NORAD_CAT_ID":43226,"ELEMENT_SET_NO":999,"REV_AT_EPOCH":2947,"BSTAR":0,"MEAN_MOTION_DOT":-1.83e-6,"MEAN_MOTION_DDOT":0},{"OBJECT_NAME":"HISPASAT 30W-6","OBJECT_ID":"2018-023A","EPOCH":"2026-03-13T22:05:53.842848","MEAN_MOTION":1.00272889,"ECCENTRICITY":0.00056177,"INCLINATION":0.0458,"RA_OF_ASC_NODE":32.1816,"ARG_OF_PERICENTER":337.9265,"MEAN_ANOMALY":102.886,"EPHEMERIS_TYPE":0,"CLASSIFICATION_TYPE":"U","NORAD_CAT_ID":43228,"ELEMENT_SET_NO":999,"REV_AT_EPOCH":2945,"BSTAR":0,"MEAN_MOTION_DOT":-2.17e-6,"MEAN_MOTION_DDOT":0},{"OBJECT_NAME":"GSAT-6A","OBJECT_ID":"2018-027A","EPOCH":"2026-03-14T12:37:40.966176","MEAN_MOTION":1.1931627,"ECCENTRICITY":0.13112081,"INCLINATION":3.0359,"RA_OF_ASC_NODE":83.7915,"ARG_OF_PERICENTER":107.6347,"MEAN_ANOMALY":324.2107,"EPHEMERIS_TYPE":0,"CLASSIFICATION_TYPE":"U","NORAD_CAT_ID":43241,"ELEMENT_SET_NO":999,"REV_AT_EPOCH":3473,"BSTAR":0,"MEAN_MOTION_DOT":-8.0e-7,"MEAN_MOTION_DDOT":0},{"OBJECT_NAME":"SUPERBIRD-B3","OBJECT_ID":"2018-033A","EPOCH":"2026-03-13T07:52:38.562240","MEAN_MOTION":1.00273061,"ECCENTRICITY":0.00015236,"INCLINATION":0.0152,"RA_OF_ASC_NODE":108.8175,"ARG_OF_PERICENTER":275.0508,"MEAN_ANOMALY":67.2408,"EPHEMERIS_TYPE":0,"CLASSIFICATION_TYPE":"U","NORAD_CAT_ID":43271,"ELEMENT_SET_NO":999,"REV_AT_EPOCH":2909,"BSTAR":0,"MEAN_MOTION_DOT":-9.2e-7,"MEAN_MOTION_DDOT":0},{"OBJECT_NAME":"HYLAS 4","OBJECT_ID":"2018-033B","EPOCH":"2026-03-14T01:30:11.751264","MEAN_MOTION":1.00274037,"ECCENTRICITY":0.00012952,"INCLINATION":0.0195,"RA_OF_ASC_NODE":109.9894,"ARG_OF_PERICENTER":278.2626,"MEAN_ANOMALY":132.4031,"EPHEMERIS_TYPE":0,"CLASSIFICATION_TYPE":"U","NORAD_CAT_ID":43272,"ELEMENT_SET_NO":999,"REV_AT_EPOCH":2911,"BSTAR":0,"MEAN_MOTION_DOT":-2.34e-6,"MEAN_MOTION_DDOT":0},{"OBJECT_NAME":"IRNSS-1I","OBJECT_ID":"2018-035A","EPOCH":"2026-03-14T13:54:18.618624","MEAN_MOTION":1.00272307,"ECCENTRICITY":0.00191412,"INCLINATION":28.9518,"RA_OF_ASC_NODE":75.6565,"ARG_OF_PERICENTER":189.6246,"MEAN_ANOMALY":170.5508,"EPHEMERIS_TYPE":0,"CLASSIFICATION_TYPE":"U","NORAD_CAT_ID":43286,"ELEMENT_SET_NO":999,"REV_AT_EPOCH":2913,"BSTAR":0,"MEAN_MOTION_DOT":9.9e-7,"MEAN_MOTION_DDOT":0},{"OBJECT_NAME":"METEOSAT 3 AKM","OBJECT_ID":"1988-051G","EPOCH":"2026-03-13T05:02:59.566560","MEAN_MOTION":0.99531185,"ECCENTRICITY":0.00544661,"INCLINATION":12.075,"RA_OF_ASC_NODE":330.7619,"ARG_OF_PERICENTER":172.1155,"MEAN_ANOMALY":187.9826,"EPHEMERIS_TYPE":0,"CLASSIFICATION_TYPE":"U","NORAD_CAT_ID":43333,"ELEMENT_SET_NO":999,"REV_AT_EPOCH":4474,"BSTAR":0,"MEAN_MOTION_DOT":-3.8e-7,"MEAN_MOTION_DDOT":0},{"OBJECT_NAME":"USA 283","OBJECT_ID":"2018-036A","EPOCH":"2026-03-13T04:17:38.746752","MEAN_MOTION":1.00268062,"ECCENTRICITY":0.0001223,"INCLINATION":0.0199,"RA_OF_ASC_NODE":142.9115,"ARG_OF_PERICENTER":275.2554,"MEAN_ANOMALY":311.1688,"EPHEMERIS_TYPE":0,"CLASSIFICATION_TYPE":"U","NORAD_CAT_ID":43339,"ELEMENT_SET_NO":999,"REV_AT_EPOCH":2432,"BSTAR":0,"MEAN_MOTION_DOT":0,"MEAN_MOTION_DDOT":0},{"OBJECT_NAME":"FENGYUN 2A DEB","OBJECT_ID":"1997-029D","EPOCH":"2026-03-13T06:49:29.459136","MEAN_MOTION":1.00337724,"ECCENTRICITY":0.01268194,"INCLINATION":14.8496,"RA_OF_ASC_NODE":357.7196,"ARG_OF_PERICENTER":14.4019,"MEAN_ANOMALY":345.961,"EPHEMERIS_TYPE":0,"CLASSIFICATION_TYPE":"U","NORAD_CAT_ID":43355,"ELEMENT_SET_NO":999,"REV_AT_EPOCH":4164,"BSTAR":0,"MEAN_MOTION_DOT":-2.57e-6,"MEAN_MOTION_DDOT":0},{"OBJECT_NAME":"FENGYUN 2F DEB","OBJECT_ID":"2012-002D","EPOCH":"2026-03-11T09:49:44.782176","MEAN_MOTION":1.00336024,"ECCENTRICITY":0.0278853,"INCLINATION":8.8838,"RA_OF_ASC_NODE":58.4131,"ARG_OF_PERICENTER":301.388,"MEAN_ANOMALY":55.9802,"EPHEMERIS_TYPE":0,"CLASSIFICATION_TYPE":"U","NORAD_CAT_ID":43396,"ELEMENT_SET_NO":999,"REV_AT_EPOCH":4178,"BSTAR":0,"MEAN_MOTION_DOT":-3.6e-6,"MEAN_MOTION_DDOT":0},{"OBJECT_NAME":"COSMOS 2526","OBJECT_ID":"2018-037A","EPOCH":"2026-03-13T00:36:02.388960","MEAN_MOTION":1.00274475,"ECCENTRICITY":4.924e-5,"INCLINATION":0.008,"RA_OF_ASC_NODE":164.2767,"ARG_OF_PERICENTER":244.9317,"MEAN_ANOMALY":258.5172,"EPHEMERIS_TYPE":0,"CLASSIFICATION_TYPE":"U","NORAD_CAT_ID":43432,"ELEMENT_SET_NO":999,"REV_AT_EPOCH":2899,"BSTAR":0,"MEAN_MOTION_DOT":-3.44e-6,"MEAN_MOTION_DDOT":0},{"OBJECT_NAME":"BREEZE-M R/B","OBJECT_ID":"2018-037B","EPOCH":"2026-03-14T04:17:17.859552","MEAN_MOTION":0.90514211,"ECCENTRICITY":0.06780956,"INCLINATION":7.878,"RA_OF_ASC_NODE":72.2621,"ARG_OF_PERICENTER":25.9739,"MEAN_ANOMALY":337.428,"EPHEMERIS_TYPE":0,"CLASSIFICATION_TYPE":"U","NORAD_CAT_ID":43433,"ELEMENT_SET_NO":999,"REV_AT_EPOCH":2633,"BSTAR":0,"MEAN_MOTION_DOT":-1.46e-6,"MEAN_MOTION_DDOT":0},{"OBJECT_NAME":"APSTAR-6C","OBJECT_ID":"2018-041A","EPOCH":"2026-03-12T14:21:31.078368","MEAN_MOTION":1.00269636,"ECCENTRICITY":0.000265,"INCLINATION":0.0629,"RA_OF_ASC_NODE":306.7775,"ARG_OF_PERICENTER":46.2952,"MEAN_ANOMALY":166.515,"EPHEMERIS_TYPE":0,"CLASSIFICATION_TYPE":"U","NORAD_CAT_ID":43450,"ELEMENT_SET_NO":999,"REV_AT_EPOCH":2884,"BSTAR":0,"MEAN_MOTION_DOT":-3.18e-6,"MEAN_MOTION_DDOT":0},{"OBJECT_NAME":"TITAN 3C TRANSTAGE DEB","OBJECT_ID":"1969-013L","EPOCH":"2026-03-13T16:53:00.386016","MEAN_MOTION":1.07384061,"ECCENTRICITY":0.07025376,"INCLINATION":1.4027,"RA_OF_ASC_NODE":143.5937,"ARG_OF_PERICENTER":326.0336,"MEAN_ANOMALY":29.8261,"EPHEMERIS_TYPE":0,"CLASSIFICATION_TYPE":"U","NORAD_CAT_ID":43453,"ELEMENT_SET_NO":999,"REV_AT_EPOCH":3101,"BSTAR":0,"MEAN_MOTION_DOT":-1.79e-6,"MEAN_MOTION_DDOT":0},{"OBJECT_NAME":"TITAN 3C TRANSTAGE DEB","OBJECT_ID":"1969-013M","EPOCH":"2026-03-13T15:57:52.376256","MEAN_MOTION":1.02844641,"ECCENTRICITY":0.0546497,"INCLINATION":0.9572,"RA_OF_ASC_NODE":133.3699,"ARG_OF_PERICENTER":337.4281,"MEAN_ANOMALY":255.1071,"EPHEMERIS_TYPE":0,"CLASSIFICATION_TYPE":"U","NORAD_CAT_ID":43454,"ELEMENT_SET_NO":999,"REV_AT_EPOCH":2965,"BSTAR":0,"MEAN_MOTION_DOT":-1.05e-6,"MEAN_MOTION_DDOT":0}]
