SES-14                  
1 43175U 18012B   26071.34844264 -.00000278  00000+0  00000+0 0  9999
2 43175   0.0142  73.2078 0000900 285.1964 249.4941  1.00272273  6058
ARIANE 5 R/B            
1 43176U 18012C   26073.01404756  .00002318  00000+0  11185-2 0  9999
2 43176  22.0404   2.0363 7468116 120.7057 332.1696  2.04046415 57372
GOES 17                 
1 43226U 18022A   26073.55078204 -.00000183  00000+0  00000+0 0  9990
2 43226   0.6927  87.3200 0001625 234.4927 319.1205  1.00272505 29473
HISPASAT 30W-6          
1 43228U 18023A   26072.92076207 -.00000217  00000+0  00000+0 0  9992
2 43228   0.0458  32.1816 0005617 337.9265 102.8860  1.00272889 29455
GSAT-6A                 
1 43241U 18027A   26073.52616859 -.00000080  00000+0  00000+0 0  9999
2 43241   3.0359  83.7915 1311208 107.6347 324.2107  1.19316270 34739
SUPERBIRD-B3            
1 43271U 18033A   26072.32822410 -.00000092  00000+0  00000+0 0  9991
2 43271   0.0152 108.8175 0001523 275.0508  67.2408  1.00273061 29092
HYLAS 4                 
1 43272U 18033B   26073.06263601 -.00000234  00000+0  00000+0 0  9993
2 43272   0.0195 109.9894 0001295 278.2626 132.4031  1.00274037 29116
IRNSS-1I                
1 43286U 18035A   26073.57938216  .00000099  00000+0  00000+0 0  9995
2 43286  28.9518  75.6565 0019141 189.6246 170.5508  1.00272307 29137
METEOSAT 3 AKM          
1 43333U 88051G   26072.21041165 -.00000038  00000+0  00000+0 0  9995
2 43333  12.0750 330.7619 0054466 172.1155 187.9826  0.99531185 44740
USA 283                 
1 43339U 18036A   26072.17892068  .00000000  00000+0  00000+0 0  9996
2 43339   0.0199 142.9115 0001223 275.2554 311.1688  1.00268062 24328
FENGYUN 2A DEB          
1 43355U 97029D   26072.28436874 -.00000257  00000+0  00000+0 0  9999
2 43355  14.8496 357.7196 0126819  14.4019 345.9610  1.00337724 41648
FENGYUN 2F DEB          
1 43396U 12002D   26070.40954609 -.00000360  00000+0  00000+0 0  9990
2 43396   8.8838  58.4131 0278853 301.3880  55.9802  1.00336024 41788
COSMOS 2526             
1 43432U 18037A   26072.02502765 -.00000344  00000+0  00000+0 0  9999
2 43432   0.0080 164.2767 0000492 244.9317 258.5172  1.00274475 28992
BREEZE-M R/B            
1 43433U 18037B   26073.17867893 -.00000146  00000+0  00000+0 0  9993
2 43433   7.8780  72.2621 0678095  25.9739 337.4280  0.90514211 26333
APSTAR-6C               
1 43450U 18041A   26071.59827637 -.00000318  00000+0  00000+0 0  9994
2 43450   0.0629 306.7775 0002650  46.2952 166.5150  1.00269636 28840
TITAN 3C TRANSTAGE DEB  
1 43453U 69013L   26072.70347669 -.00000179  00000+0  00000+0 0  9993
2 43453   1.4027 143.5937 0702537 326.0336  29.8261  1.07384061 31017
TITAN 3C TRANSTAGE DEB  
1 43454U 69013M   26072.66518954 -.00000105  00000+0  00000+0 0  9995
2 43454   0.9572 133.3699 0546497 337.4281 255.1071  1.02844641 29655
